{
  "type": "FeatureCollection",
  "features": [
    {
      "type": "Feature",
      "properties": {
        "norad_id": 66864,
        "name": "STARLINK-36070",
        "group": "last-30-days",
        "lat": 28.532450425307207,
        "lon": -154.676922318622,
        "alt_km": 369.84955484375223,
        "timestamp": "2025-12-22T18:58:52.139753+00:00",
        "meta_object_name": "STARLINK-36070",
        "meta_object_id": "2025-281S",
        "meta_epoch": "2025-12-22T06:00:02.000160",
        "meta_mean_motion": 15.67246995,
        "meta_eccentricity": 0.00013914,
        "meta_inclination": 43.0005,
        "meta_ra_of_asc_node": 64.2549,
        "meta_arg_of_pericenter": 269.0543,
        "meta_mean_anomaly": 53.4445,
        "meta_ephemeris_type": 0,
        "meta_classification_type": "U",
        "meta_norad_cat_id": 66864,
        "meta_element_set_no": 999,
        "meta_rev_at_epoch": 295,
        "meta_bstar": -0.020380584,
        "meta_mean_motion_dot": -0.01986496,
        "meta_mean_motion_ddot": 0,
        "tle_line1": "1 66864U 25281S   25356.25002315 -.01986496  00000+0 -20381-1 0  9996",
        "tle_line2": "2 66864  43.0005  64.2549 0001391 269.0543  53.4445 15.67246995  2952"
      },
      "geometry": {
        "type": "Point",
        "coordinates": [
          -154.676922318622,
          28.532450425307207
        ]
      }
    },
    {
      "type": "Feature",
      "properties": {
        "norad_id": 66865,
        "name": "STARLINK-36117",
        "group": "last-30-days",
        "lat": 26.361244359047273,
        "lon": -151.1203311289851,
        "alt_km": 370.13114049334945,
        "timestamp": "2025-12-22T18:58:52.139763+00:00",
        "meta_object_name": "STARLINK-36117",
        "meta_object_id": "2025-281T",
        "meta_epoch": "2025-12-22T06:00:02.000160",
        "meta_mean_motion": 15.67246957,
        "meta_eccentricity": 0.00013395,
        "meta_inclination": 43.0001,
        "meta_ra_of_asc_node": 64.2458,
        "meta_arg_of_pericenter": 269.6295,
        "meta_mean_anomaly": 56.7043,
        "meta_ephemeris_type": 0,
        "meta_classification_type": "U",
        "meta_norad_cat_id": 66865,
        "meta_element_set_no": 999,
        "meta_rev_at_epoch": 292,
        "meta_bstar": -0.020392609,
        "meta_mean_motion_dot": -0.01987485,
        "meta_mean_motion_ddot": 0,
        "tle_line1": "1 66865U 25281T   25356.25002315 -.01987485  00000+0 -20393-1 0  9999",
        "tle_line2": "2 66865  43.0001  64.2458 0001339 269.6295  56.7043 15.67246957  2925"
      },
      "geometry": {
        "type": "Point",
        "coordinates": [
          -151.1203311289851,
          26.361244359047273
        ]
      }
    },
    {
      "type": "Feature",
      "properties": {
        "norad_id": 66866,
        "name": "STARLINK-36126",
        "group": "last-30-days",
        "lat": 25.243292514133167,
        "lon": -149.39372796257405,
        "alt_km": 370.4021235516566,
        "timestamp": "2025-12-22T18:58:52.139773+00:00",
        "meta_object_name": "STARLINK-36126",
        "meta_object_id": "2025-281U",
        "meta_epoch": "2025-12-22T06:00:02.000160",
        "meta_mean_motion": 15.67247863,
        "meta_eccentricity": 0.00014482,
        "meta_inclination": 43.0005,
        "meta_ra_of_asc_node": 64.2402,
        "meta_arg_of_pericenter": 273.4408,
        "meta_mean_anomaly": 54.8076,
        "meta_ephemeris_type": 0,
        "meta_classification_type": "U",
        "meta_norad_cat_id": 66866,
        "meta_element_set_no": 999,
        "meta_rev_at_epoch": 295,
        "meta_bstar": -0.0203846,
        "meta_mean_motion_dot": -0.01986948,
        "meta_mean_motion_ddot": 0,
        "tle_line1": "1 66866U 25281U   25356.25002315 -.01986948  00000+0 -20385-1 0  9994",
        "tle_line2": "2 66866  43.0005  64.2402 0001448 273.4408  54.8076 15.67247863  2954"
      },
      "geometry": {
        "type": "Point",
        "coordinates": [
          -149.39372796257405,
          25.243292514133167
        ]
      }
    },
    {
      "type": "Feature",
      "properties": {
        "norad_id": 66867,
        "name": "STARLINK-36101",
        "group": "last-30-days",
        "lat": 24.10588593220574,
        "lon": -147.69931341221584,
        "alt_km": 370.4011409256191,
        "timestamp": "2025-12-22T18:58:52.139785+00:00",
        "meta_object_name": "STARLINK-36101",
        "meta_object_id": "2025-281V",
        "meta_epoch": "2025-12-22T06:00:02.000160",
        "meta_mean_motion": 15.67249613,
        "meta_eccentricity": 0.00012766,
        "meta_inclination": 43.0005,
        "meta_ra_of_asc_node": 64.2353,
        "meta_arg_of_pericenter": 268.836,
        "meta_mean_anomaly": 61.3324,
        "meta_ephemeris_type": 0,
        "meta_classification_type": "U",
        "meta_norad_cat_id": 66867,
        "meta_element_set_no": 999,
        "meta_rev_at_epoch": 276,
        "meta_bstar": -0.020448223,
        "meta_mean_motion_dot": -0.01992395,
        "meta_mean_motion_ddot": 0,
        "tle_line1": "1 66867U 25281V   25356.25002315 -.01992395  00000+0 -20448-1 0  9998",
        "tle_line2": "2 66867  43.0005  64.2353 0001276 268.8360  61.3324 15.67249613  2767"
      },
      "geometry": {
        "type": "Point",
        "coordinates": [
          -147.69931341221584,
          24.10588593220574
        ]
      }
    },
    {
      "type": "Feature",
      "properties": {
        "norad_id": 66868,
        "name": "STARLINK-36108",
        "group": "last-30-days",
        "lat": 22.950076932773573,
        "lon": -146.03453604916407,
        "alt_km": 370.59048510663433,
        "timestamp": "2025-12-22T18:58:52.139795+00:00",
        "meta_object_name": "STARLINK-36108",
        "meta_object_id": "2025-281W",
        "meta_epoch": "2025-12-22T06:00:02.000160",
        "meta_mean_motion": 15.67248454,
        "meta_eccentricity": 0.00013287,
        "meta_inclination": 43.0006,
        "meta_ra_of_asc_node": 64.2309,
        "meta_arg_of_pericenter": 269.4178,
        "meta_mean_anomaly": 62.6688,
        "meta_ephemeris_type": 0,
        "meta_classification_type": "U",
        "meta_norad_cat_id": 66868,
        "meta_element_set_no": 999,
        "meta_rev_at_epoch": 276,
        "meta_bstar": -0.02044134,
        "meta_mean_motion_dot": -0.01991762,
        "meta_mean_motion_ddot": 0,
        "tle_line1": "1 66868U 25281W   25356.25002315 -.01991762  00000+0 -20441-1 0  9999",
        "tle_line2": "2 66868  43.0006  64.2309 0001328 269.4178  62.6688 15.67248454  2761"
      },
      "geometry": {
        "type": "Point",
        "coordinates": [
          -146.03453604916407,
          22.950076932773573
        ]
      }
    },
    {
      "type": "Feature",
      "properties": {
        "norad_id": 66869,
        "name": "STARLINK-36092",
        "group": "last-30-days",
        "lat": 21.77683259686677,
        "lon": -144.39888135265122,
        "alt_km": 370.6649582950067,
        "timestamp": "2025-12-22T18:58:52.139805+00:00",
        "meta_object_name": "STARLINK-36092",
        "meta_object_id": "2025-281X",
        "meta_epoch": "2025-12-22T06:00:02.000160",
        "meta_mean_motion": 15.67250532,
        "meta_eccentricity": 0.00012259,
        "meta_inclination": 43.0003,
        "meta_ra_of_asc_node": 64.2259,
        "meta_arg_of_pericenter": 267.3435,
        "meta_mean_anomaly": 66.6584,
        "meta_ephemeris_type": 0,
        "meta_classification_type": "U",
        "meta_norad_cat_id": 66869,
        "meta_element_set_no": 999,
        "meta_rev_at_epoch": 295,
        "meta_bstar": -0.020468914,
        "meta_mean_motion_dot": -0.01994195,
        "meta_mean_motion_ddot": 0,
        "tle_line1": "1 66869U 25281X   25356.25002315 -.01994195  00000+0 -20469-1 0  9993",
        "tle_line2": "2 66869  43.0003  64.2259 0001225 267.3435  66.6584 15.67250532  2952"
      },
      "geometry": {
        "type": "Point",
        "coordinates": [
          -144.39888135265122,
          21.77683259686677
        ]
      }
    },
    {
      "type": "Feature",
      "properties": {
        "norad_id": 66870,
        "name": "STARLINK-36114",
        "group": "last-30-days",
        "lat": 20.586613995303754,
        "lon": -142.78862760436652,
        "alt_km": 370.9679488033953,
        "timestamp": "2025-12-22T18:58:52.139815+00:00",
        "meta_object_name": "STARLINK-36114",
        "meta_object_id": "2025-281Y",
        "meta_epoch": "2025-12-22T06:00:02.000160",
        "meta_mean_motion": 15.67247098,
        "meta_eccentricity": 0.00014522,
        "meta_inclination": 43.0004,
        "meta_ra_of_asc_node": 64.2205,
        "meta_arg_of_pericenter": 270.9009,
        "meta_mean_anomaly": 65.0177,
        "meta_ephemeris_type": 0,
        "meta_classification_type": "U",
        "meta_norad_cat_id": 66870,
        "meta_element_set_no": 999,
        "meta_rev_at_epoch": 282,
        "meta_bstar": -0.020380319,
        "meta_mean_motion_dot": -0.01986529,
        "meta_mean_motion_ddot": 0,
        "tle_line1": "1 66870U 25281Y   25356.25002315 -.01986529  00000+0 -20380-1 0  9999",
        "tle_line2": "2 66870  43.0004  64.2205 0001452 270.9009  65.0177 15.67247098  2825"
      },
      "geometry": {
        "type": "Point",
        "coordinates": [
          -142.78862760436652,
          20.586613995303754
        ]
      }
    }
  ]
}